SL-3 R/B                
1 13403U 82079B   25353.24824783  .00004848  00000+0  19910-3 0  9999
2 13403  81.1476 287.9882 0027097  78.1943 282.2327 15.23659302365445
SL-14 R/B               
1 13553U 82092B   25353.15319023  .00000373  00000+0  39212-4 0  9993
2 13553  82.5677 216.7140 0019636 204.6884 274.1062 14.86561601316967
SL-3 R/B                
1 13819U 83010B   25353.25466337  .00011088  00000+0  24443-3 0  9995
2 13819  81.1051 100.6662 0016823 328.0890  31.9332 15.43626184345521
SL-3 R/B                
1 14208U 83075B   25353.17078529  .00007814  00000+0  22155-3 0  9992
2 14208  97.6099 349.8706 0023438 152.9247 207.3224 15.36259424317781
COSMOS 1536             
1 14699U 84013A   25352.98413125  .00005010  00000+0  21382-3 0  9999
2 14699  82.5440 187.9710 0013943 202.0876 157.9762 15.22586424260332
SL-14 R/B               
1 14820U 84027B   25353.02035481  .00000409  00000+0  44081-4 0  9990
2 14820  82.5415 320.6659 0016531 238.0650 121.8959 14.85880928235652
SL-8 R/B                
1 15483U 85006B   25353.22154066  .00000185  00000+0  70218-4 0  9999
2 15483  74.0464  49.2098 0018962 339.9937  76.0560 14.37724688142460
SL-12 R/B(2)            
1 15772U 85042D   25353.22825167  .00000139  00000+0  83992-4 0  9999
2 15772  71.1077 257.7127 0037449 252.0002 222.2706 14.21953870102954
SL-14 R/B               
1 15945U 85069B   25353.29899441  .00000407  00000+0  43265-4 0  9990
2 15945  82.5273 100.5368 0020333  98.3258 262.0265 14.86331666160893
SL-16 R/B               
1 16182U 85097B   25353.21253220  .00000075  00000+0  61338-4 0  9998
2 16182  71.0037 309.9757 0007113   0.2632  97.6088 14.16587527 75830
SL-14 R/B               
1 16496U 86006B   25353.02674103  .00000485  00000+0  48834-4 0  9994
2 16496  82.5266 335.6351 0076715 178.8791 181.2614 14.86679574137225
COSMOS 1743             
1 16719U 86034A   25352.90722831  .00024671  00000+0  40177-3 0  9995
2 16719  82.5338 158.1838 0004802 226.9494 133.1357 15.52485811167691
