CCSDS_OMM_VERS = 2.0
CREATION_DATE  = 
ORIGINATOR     = 

OBJECT_NAME    = SL-3 R/B
OBJECT_ID      = 1982-079B
CENTER_NAME    = EARTH
REF_FRAME      = TEME
TIME_SYSTEM    = UTC
MEAN_ELEMENT_THEORY = SGP/SGP4

EPOCH          = 2025-12-19T05:57:28.612512
MEAN_MOTION    = 15.23659302
ECCENTRICITY   = .00270978
INCLINATION    = 81.1476
RA_OF_ASC_NODE = 287.9882
ARG_OF_PERICENTER = 78.1943
MEAN_ANOMALY   = 282.2327

EPHEMERIS_TYPE = 0
CLASSIFICATION_TYPE = U
NORAD_CAT_ID   = 13403
ELEMENT_SET_NO = 999
REV_AT_EPOCH   = 36544
BSTAR          = .19910441E-3
MEAN_MOTION_DOT = .4848E-4
MEAN_MOTION_DDOT = 0

CCSDS_OMM_VERS = 2.0
CREATION_DATE  = 
ORIGINATOR     = 

OBJECT_NAME    = SL-14 R/B
OBJECT_ID      = 1982-092B
CENTER_NAME    = EARTH
REF_FRAME      = TEME
TIME_SYSTEM    = UTC
MEAN_ELEMENT_THEORY = SGP/SGP4

EPOCH          = 2025-12-19T03:40:35.635872
MEAN_MOTION    = 14.86561601
ECCENTRICITY   = .00196368
INCLINATION    = 82.5677
RA_OF_ASC_NODE = 216.7140
ARG_OF_PERICENTER = 204.6884
MEAN_ANOMALY   = 274.1062

EPHEMERIS_TYPE = 0
CLASSIFICATION_TYPE = U
NORAD_CAT_ID   = 13553
ELEMENT_SET_NO = 999
REV_AT_EPOCH   = 31696
BSTAR          = .3921197E-4
MEAN_MOTION_DOT = .373E-5
MEAN_MOTION_DDOT = 0

CCSDS_OMM_VERS = 2.0
CREATION_DATE  = 
ORIGINATOR     = 

OBJECT_NAME    = SL-3 R/B
OBJECT_ID      = 1983-010B
CENTER_NAME    = EARTH
REF_FRAME      = TEME
TIME_SYSTEM    = UTC
MEAN_ELEMENT_THEORY = SGP/SGP4

EPOCH          = 2025-12-19T06:06:42.915168
MEAN_MOTION    = 15.43626184
ECCENTRICITY   = .0016823
INCLINATION    = 81.1051
RA_OF_ASC_NODE = 100.6662
ARG_OF_PERICENTER = 328.0890
MEAN_ANOMALY   = 31.9332

EPHEMERIS_TYPE = 0
CLASSIFICATION_TYPE = U
NORAD_CAT_ID   = 13819
ELEMENT_SET_NO = 999
REV_AT_EPOCH   = 34552
BSTAR          = .24443217E-3
MEAN_MOTION_DOT = .11088E-3
MEAN_MOTION_DDOT = 0

CCSDS_OMM_VERS = 2.0
CREATION_DATE  = 
ORIGINATOR     = 

OBJECT_NAME    = SL-3 R/B
OBJECT_ID      = 1983-075B
CENTER_NAME    = EARTH
REF_FRAME      = TEME
TIME_SYSTEM    = UTC
MEAN_ELEMENT_THEORY = SGP/SGP4

EPOCH          = 2025-12-19T04:05:55.849056
MEAN_MOTION    = 15.36259424
ECCENTRICITY   = .00234385
INCLINATION    = 97.6099
RA_OF_ASC_NODE = 349.8706
ARG_OF_PERICENTER = 152.9247
MEAN_ANOMALY   = 207.3224

EPHEMERIS_TYPE = 0
CLASSIFICATION_TYPE = U
NORAD_CAT_ID   = 14208
ELEMENT_SET_NO = 999
REV_AT_EPOCH   = 31778
BSTAR          = .22155097E-3
MEAN_MOTION_DOT = .7814E-4
MEAN_MOTION_DDOT = 0

CCSDS_OMM_VERS = 2.0
CREATION_DATE  = 
ORIGINATOR     = 

OBJECT_NAME    = COSMOS 1536
OBJECT_ID      = 1984-013A
CENTER_NAME    = EARTH
REF_FRAME      = TEME
TIME_SYSTEM    = UTC
MEAN_ELEMENT_THEORY = SGP/SGP4

EPOCH          = 2025-12-18T23:37:08.940000
MEAN_MOTION    = 15.22586424
ECCENTRICITY   = .00139432
INCLINATION    = 82.5440
RA_OF_ASC_NODE = 187.9710
ARG_OF_PERICENTER = 202.0876
MEAN_ANOMALY   = 157.9762

EPHEMERIS_TYPE = 0
CLASSIFICATION_TYPE = U
NORAD_CAT_ID   = 14699
ELEMENT_SET_NO = 999
REV_AT_EPOCH   = 26033
BSTAR          = .2138207E-3
MEAN_MOTION_DOT = .501E-4
MEAN_MOTION_DDOT = 0

CCSDS_OMM_VERS = 2.0
CREATION_DATE  = 
ORIGINATOR     = 

OBJECT_NAME    = SL-14 R/B
OBJECT_ID      = 1984-027B
CENTER_NAME    = EARTH
REF_FRAME      = TEME
TIME_SYSTEM    = UTC
MEAN_ELEMENT_THEORY = SGP/SGP4

EPOCH          = 2025-12-19T00:29:18.655584
MEAN_MOTION    = 14.85880928
ECCENTRICITY   = .00165314
INCLINATION    = 82.5415
RA_OF_ASC_NODE = 320.6659
ARG_OF_PERICENTER = 238.0650
MEAN_ANOMALY   = 121.8959

EPHEMERIS_TYPE = 0
CLASSIFICATION_TYPE = U
NORAD_CAT_ID   = 14820
ELEMENT_SET_NO = 999
REV_AT_EPOCH   = 23565
BSTAR          = .44080684E-4
MEAN_MOTION_DOT = .409E-5
MEAN_MOTION_DDOT = 0

CCSDS_OMM_VERS = 2.0
CREATION_DATE  = 
ORIGINATOR     = 

OBJECT_NAME    = SL-8 R/B
OBJECT_ID      = 1985-006B
CENTER_NAME    = EARTH
REF_FRAME      = TEME
TIME_SYSTEM    = UTC
MEAN_ELEMENT_THEORY = SGP/SGP4

EPOCH          = 2025-12-19T05:19:01.113024
MEAN_MOTION    = 14.37724688
ECCENTRICITY   = .00189629
INCLINATION    = 74.0464
RA_OF_ASC_NODE = 49.2098
ARG_OF_PERICENTER = 339.9937
MEAN_ANOMALY   = 76.0560

EPHEMERIS_TYPE = 0
CLASSIFICATION_TYPE = U
NORAD_CAT_ID   = 15483
ELEMENT_SET_NO = 999
REV_AT_EPOCH   = 14246
BSTAR          = .70217663E-4
MEAN_MOTION_DOT = .185E-5
MEAN_MOTION_DDOT = 0

CCSDS_OMM_VERS = 2.0
CREATION_DATE  = 
ORIGINATOR     = 

OBJECT_NAME    = SL-12 R/B(2)
OBJECT_ID      = 1985-042D
CENTER_NAME    = EARTH
REF_FRAME      = TEME
TIME_SYSTEM    = UTC
MEAN_ELEMENT_THEORY = SGP/SGP4

EPOCH          = 2025-12-19T05:28:40.944288
MEAN_MOTION    = 14.21953870
ECCENTRICITY   = .00374497
INCLINATION    = 71.1077
RA_OF_ASC_NODE = 257.7127
ARG_OF_PERICENTER = 252.0002
MEAN_ANOMALY   = 222.2706

EPHEMERIS_TYPE = 0
CLASSIFICATION_TYPE = U
NORAD_CAT_ID   = 15772
ELEMENT_SET_NO = 999
REV_AT_EPOCH   = 10295
BSTAR          = .8399193E-4
MEAN_MOTION_DOT = .139E-5
MEAN_MOTION_DDOT = 0

CCSDS_OMM_VERS = 2.0
CREATION_DATE  = 
ORIGINATOR     = 

OBJECT_NAME    = SL-14 R/B
OBJECT_ID      = 1985-069B
CENTER_NAME    = EARTH
REF_FRAME      = TEME
TIME_SYSTEM    = UTC
MEAN_ELEMENT_THEORY = SGP/SGP4

EPOCH          = 2025-12-19T07:10:33.117024
MEAN_MOTION    = 14.86331666
ECCENTRICITY   = .00203337
INCLINATION    = 82.5273
RA_OF_ASC_NODE = 100.5368
ARG_OF_PERICENTER = 98.3258
MEAN_ANOMALY   = 262.0265

EPHEMERIS_TYPE = 0
CLASSIFICATION_TYPE = U
NORAD_CAT_ID   = 15945
ELEMENT_SET_NO = 999
REV_AT_EPOCH   = 16089
BSTAR          = .43264975E-4
MEAN_MOTION_DOT = .407E-5
MEAN_MOTION_DDOT = 0

CCSDS_OMM_VERS = 2.0
CREATION_DATE  = 
ORIGINATOR     = 

OBJECT_NAME    = SL-16 R/B
OBJECT_ID      = 1985-097B
CENTER_NAME    = EARTH
REF_FRAME      = TEME
TIME_SYSTEM    = UTC
MEAN_ELEMENT_THEORY = SGP/SGP4

EPOCH          = 2025-12-19T05:06:02.782080
MEAN_MOTION    = 14.16587527
ECCENTRICITY   = .00071135
INCLINATION    = 71.0037
RA_OF_ASC_NODE = 309.9757
ARG_OF_PERICENTER = 0.2632
MEAN_ANOMALY   = 97.6088

EPHEMERIS_TYPE = 0
CLASSIFICATION_TYPE = U
NORAD_CAT_ID   = 16182
ELEMENT_SET_NO = 999
REV_AT_EPOCH   = 7583
BSTAR          = .61338244E-4
MEAN_MOTION_DOT = .75E-6
MEAN_MOTION_DDOT = 0

CCSDS_OMM_VERS = 2.0
CREATION_DATE  = 
ORIGINATOR     = 

OBJECT_NAME    = SL-14 R/B
OBJECT_ID      = 1986-006B
CENTER_NAME    = EARTH
REF_FRAME      = TEME
TIME_SYSTEM    = UTC
MEAN_ELEMENT_THEORY = SGP/SGP4

EPOCH          = 2025-12-19T00:38:30.424992
MEAN_MOTION    = 14.86679574
ECCENTRICITY   = .00767157
INCLINATION    = 82.5266
RA_OF_ASC_NODE = 335.6351
ARG_OF_PERICENTER = 178.8791
MEAN_ANOMALY   = 181.2614

EPHEMERIS_TYPE = 0
CLASSIFICATION_TYPE = U
NORAD_CAT_ID   = 16496
ELEMENT_SET_NO = 999
REV_AT_EPOCH   = 13722
BSTAR          = .4883409E-4
MEAN_MOTION_DOT = .485E-5
MEAN_MOTION_DDOT = 0

CCSDS_OMM_VERS = 2.0
CREATION_DATE  = 
ORIGINATOR     = 

OBJECT_NAME    = COSMOS 1743
OBJECT_ID      = 1986-034A
CENTER_NAME    = EARTH
REF_FRAME      = TEME
TIME_SYSTEM    = UTC
MEAN_ELEMENT_THEORY = SGP/SGP4

EPOCH          = 2025-12-18T21:46:24.525984
MEAN_MOTION    = 15.52485811
ECCENTRICITY   = .00048023
INCLINATION    = 82.5338
RA_OF_ASC_NODE = 158.1838
ARG_OF_PERICENTER = 226.9494
MEAN_ANOMALY   = 133.1357

EPHEMERIS_TYPE = 0
CLASSIFICATION_TYPE = U
NORAD_CAT_ID   = 16719
ELEMENT_SET_NO = 999
REV_AT_EPOCH   = 16769
BSTAR          = .40177018E-3
MEAN_MOTION_DOT = .24671E-3
MEAN_MOTION_DDOT = 0

